{"version": 0.6, "generator": "Overpass API 0.7.62.8 e802775f", "osm3s": {"timestamp_osm_base": "2025-11-18T21:21:38Z", "copyright": "The data included in this document is from www.openstreetmap.org. The data is made available under ODbL."}, "elements": [{"type": "node", "id": 30133638, "lat": 57.6936615, "lon": 11.9405254, "tags": {"bus": "yes", "highway": "bus_stop", "name": "Bockhornsgatan", "network": "V\u00e4sttrafik", "network:wikidata": "Q928178", "network:wikipedia": "sv:V\u00e4sttrafik", "public_transport": "stop_position", "ref": "B"}}, {"type": "node", "id": 31098715, "lat": 57.6968874, "lon": 11.9512499, "tags": {"bus": "yes", "highway": "bus_stop", "name": "Prinsgatan", "network": "V\u00e4sttrafik", "network:wikidata": "Q928178", "network:wikipedia": "sv:V\u00e4sttrafik", "operator": "G\u00f6teborgs Sp\u00e5rv\u00e4gar", "operator:wikidata": "Q10512910", "public_transport": "stop_position", "railway": "tram_stop", "ref": "A", "tram": "yes", "wikidata": "Q107999403"}}, {"type": "node", "id": 60142086, "lat": 57.7002011, "lon": 11.9526163, "tags": {"name": "J\u00e4rntorget", "network": "V\u00e4sttrafik", "network:wikidata": "Q928178", "operator": "G\u00f6teborgs Sp\u00e5rv\u00e4gar", "operator:wikidata": "Q10512910", "public_transport": "stop_position", "railway": "tram_stop", "ref": "A", "tram": "yes", "wikidata": "Q17092837"}}, {"type": "node", "id": 247822616, "lat": 57.6999802, "lon": 11.9529638, "tags": {"name": "J\u00e4rntorget", "network": "V\u00e4sttrafik", "network:wikidata": "Q928178", "network:wikipedia": "sv:V\u00e4sttrafik", "operator": "G\u00f6teborgs Sp\u00e5rv\u00e4gar", "operator:wikidata": "Q10512910", "public_transport": "stop_position", "railway": "tram_stop", "ref": "D", "tram": "yes", "wikidata": "Q17092837"}}, {"type": "node", "id": 283255107, "lat": 57.706583, "lon": 11.9688687, "tags": {"bus": "yes", "highway": "bus_stop", "local_ref": "C1", "name": "Brunnsparken", "network": "V\u00e4sttrafik", "network:wikidata": "Q928178", "network:wikipedia": "sv:V\u00e4sttrafik", "operator": "G\u00f6teborgs Sp\u00e5rv\u00e4gar", "operator:wikidata": "Q10512910", "public_transport": "stop_position", "railway": "tram_stop", "ref": "C1", "tram": "yes", "wikidata": "Q107999030"}}, {"type": "node", "id": 286076536, "lat": 57.7082051, "lon": 11.9382368, "tags": {"bus": "yes", "highway": "bus_stop", "name": "Lindholmen", "network": "V\u00e4sttrafik", "network:wikidata": "Q928178", "network:wikipedia": "sv:V\u00e4sttrafik", "public_transport": "stop_position", "ref": "A;D"}}, {"type": "node", "id": 315979596, "lat": 57.7055056, "lon": 11.9398246, "tags": {"amenity": "ferry_terminal", "cargo": "passengers", "ferry": "yes", "name": "Lindholmspiren", "network": "V\u00e4sttrafik", "network:wikidata": "Q928178", "network:wikipedia": "sv:V\u00e4sttrafik", "public_transport": "stop_position", "ref": "A", "wheelchair": "yes"}}, {"type": "node", "id": 316083098, "lat": 57.6995906, "lon": 11.9630663, "tags": {"name": "Hagakyrkan", "network": "V\u00e4sttrafik", "network:wikidata": "Q928178", "operator": "G\u00f6teborgs Sp\u00e5rv\u00e4gar", "operator:wikidata": "Q10512910", "public_transport": "stop_position", "railway": "tram_stop", "ref": "A", "tram": "yes", "wikidata": "Q107999663"}}, {"type": "node", "id": 316138159, "lat": 57.6924153, "lon": 11.9525896, "tags": {"bus": "yes", "highway": "bus_stop", "name": "Olivedalsgatan", "network": "V\u00e4sttrafik", "network:wikidata": "Q928178", "network:wikipedia": "sv:V\u00e4sttrafik", "operator": "G\u00f6teborgs Sp\u00e5rv\u00e4gar", "operator:wikidata": "Q10512910", "public_transport": "stop_position", "railway": "tram_stop", "ref": "A", "tram": "yes", "wikidata": "Q107999398"}}, {"type": "node", "id": 316141189, "lat": 57.6981715, "lon": 11.9669504, "tags": {"name": "Vasa Viktoriagatan", "network": "V\u00e4sttrafik", "network:wikidata": "Q928178", "network:wikipedia": "sv:V\u00e4sttrafik", "operator": "G\u00f6teborgs Sp\u00e5rv\u00e4gar", "operator:wikidata": "Q10512910", "public_transport": "stop_position", "railway": "tram_stop", "ref": "A", "tram": "yes", "wikidata": "Q107999422"}}, {"type": "node", "id": 316141673, "lat": 57.698251, "lon": 11.9664299, "tags": {"name": "Vasa Viktoriagatan", "network": "V\u00e4sttrafik", "network:wikidata": "Q928178", "operator": "G\u00f6teborgs Sp\u00e5rv\u00e4gar", "operator:wikidata": "Q10512910", "public_transport": "stop_position", "railway": "tram_stop", "ref": "B", "tram": "yes", "wikidata": "Q107999422"}}, {"type": "node", "id": 435268978, "lat": 57.7002168, "lon": 11.9510315, "tags": {"bus": "yes", "highway": "bus_stop", "name": "J\u00e4rntorget", "network": "V\u00e4sttrafik", "network:wikidata": "Q928178", "network:wikipedia": "sv:V\u00e4sttrafik", "public_transport": "stop_position", "ref": "G"}}, {"type": "node", "id": 528867274, "lat": 57.7002382, "lon": 11.9524122}, {"type": "node", "id": 565429964, "lat": 57.7070653, "lon": 11.9688825}, {"type": "node", "id": 565436798, "lat": 57.6942453, "lon": 11.948134, "tags": {"bus": "yes", "highway": "bus_stop", "name": "Vegagatan", "network": "V\u00e4sttrafik", "network:wikidata": "Q928178", "network:wikipedia": "sv:V\u00e4sttrafik", "public_transport": "stop_position", "ref": "A"}}, {"type": "node", "id": 618562112, "lat": 57.7001743, "lon": 11.9524019}, {"type": "node", "id": 618562115, "lat": 57.7001117, "lon": 11.9530852}, {"type": "node", "id": 648227811, "lat": 57.69969, "lon": 11.9521415, "tags": {"bus": "yes", "highway": "bus_stop", "name": "J\u00e4rntorget", "network": "V\u00e4sttrafik", "network:wikidata": "Q928178", "network:wikipedia": "sv:V\u00e4sttrafik", "public_transport": "stop_position", "ref": "F"}}, {"type": "node", "id": 648227812, "lat": 57.7000776, "lon": 11.9521033, "tags": {"bus": "yes", "highway": "bus_stop", "name": "J\u00e4rntorget", "network": "V\u00e4sttrafik", "network:wikidata": "Q928178", "network:wikipedia": "sv:V\u00e4sttrafik", "public_transport": "stop_position", "ref": "E"}}, {"type": "node", "id": 648227813, "lat": 57.6973815, "lon": 11.9505673, "tags": {"bus": "yes", "highway": "bus_stop", "name": "Prinsgatan", "network": "V\u00e4sttrafik", "network:wikidata": "Q928178", "network:wikipedia": "sv:V\u00e4sttrafik", "public_transport": "stop_position", "ref": "C"}}, {"type": "node", "id": 651745796, "lat": 57.6950736, "lon": 11.9396685, "tags": {"bus": "yes", "highway": "bus_stop", "name": "Fj\u00e4llskolan", "network": "V\u00e4sttrafik", "network:wikidata": "Q928178", "network:wikipedia": "sv:V\u00e4sttrafik", "public_transport": "stop_position", "ref": "A"}}, {"type": "node", "id": 651745818, "lat": 57.6935827, "lon": 11.9424848, "tags": {"bus": "yes", "highway": "bus_stop", "name": "Masthugget", "network": "V\u00e4sttrafik", "network:wikidata": "Q928178", "network:wikipedia": "sv:V\u00e4sttrafik", "public_transport": "stop_position", "ref": "A"}}, {"type": "node", "id": 651758563, "lat": 57.6940241, "lon": 11.9481325, "tags": {"bus": "yes", "highway": "bus_stop", "name": "Vegagatan", "network": "V\u00e4sttrafik", "network:wikidata": "Q928178", "network:wikipedia": "sv:V\u00e4sttrafik", "public_transport": "stop_position", "ref": "B"}}, {"type": "node", "id": 651758566, "lat": 57.6963036, "lon": 11.9481274, "tags": {"bus": "yes", "highway": "bus_stop", "name": "Oscar Fredriks kyrka", "network": "V\u00e4sttrafik", "network:wikidata": "Q928178", "network:wikipedia": "sv:V\u00e4sttrafik", "public_transport": "stop_position", "ref": "A;B"}}, {"type": "node", "id": 942811403, "lat": 57.7080052, "lon": 11.9378959, "tags": {"bus": "yes", "highway": "bus_stop", "name": "Lindholmen", "network": "V\u00e4sttrafik", "network:wikidata": "Q928178", "network:wikipedia": "sv:V\u00e4sttrafik", "public_transport": "stop_position", "ref": "B;C"}}, {"type": "node", "id": 1277604359, "lat": 57.7070626, "lon": 11.9685359, "tags": {"bus": "yes", "highway": "bus_stop", "local_ref": "B1", "name": "Brunnsparken", "network": "V\u00e4sttrafik", "network:wikidata": "Q928178", "network:wikipedia": "sv:V\u00e4sttrafik", "operator": "G\u00f6teborgs Sp\u00e5rv\u00e4gar", "operator:wikidata": "Q10512910", "public_transport": "stop_position", "railway": "tram_stop", "ref": "B1", "tram": "yes", "wikidata": "Q107999030"}}, {"type": "node", "id": 1309436730, "lat": 57.7013673, "lon": 11.9492645, "tags": {"bus": "yes", "highway": "bus_stop", "local_ref": "B", "name": "J\u00e4rnv\u00e5gen", "network": "V\u00e4sttrafik", "network:wikidata": "Q928178", "network:wikipedia": "sv:V\u00e4sttrafik", "public_transport": "stop_position", "ref": "B"}}, {"type": "node", "id": 1386002065, "lat": 57.702532, "lon": 11.9635991, "tags": {"name": "Gr\u00f6nsakstorget", "network": "V\u00e4sttrafik", "network:wikidata": "Q928178", "network:wikipedia": "sv:V\u00e4sttrafik", "operator": "G\u00f6teborgs Sp\u00e5rv\u00e4gar", "operator:wikidata": "Q10512910", "public_transport": "stop_position", "railway": "tram_stop", "ref": "D", "tram": "yes", "wikidata": "Q107999063"}}, {"type": "node", "id": 1395259825, "lat": 57.6999594, "lon": 11.9530791, "tags": {"name": "J\u00e4rntorget", "network": "V\u00e4sttrafik", "network:wikidata": "Q928178", "operator": "G\u00f6teborgs Sp\u00e5rv\u00e4gar", "operator:wikidata": "Q10512910", "public_transport": "stop_position", "railway": "tram_stop", "ref": "C", "tram": "yes", "wikidata": "Q17092837"}}, {"type": "node", "id": 1395259845, "lat": 57.700129, "lon": 11.953095, "tags": {"name": "J\u00e4rntorget", "network": "V\u00e4sttrafik", "network:wikidata": "Q928178", "operator": "G\u00f6teborgs Sp\u00e5rv\u00e4gar", "operator:wikidata": "Q10512910", "public_transport": "stop_position", "railway": "tram_stop", "ref": "B", "tram": "yes", "wikidata": "Q17092837"}}, {"type": "node", "id": 1517531567, "lat": 57.70712, "lon": 11.9678056, "tags": {"bus": "yes", "highway": "bus_stop", "local_ref": "A1", "name": "Brunnsparken", "network": "V\u00e4sttrafik", "network:wikidata": "Q928178", "network:wikipedia": "sv:V\u00e4sttrafik", "operator": "G\u00f6teborgs Sp\u00e5rv\u00e4gar", "operator:wikidata": "Q10512910", "public_transport": "stop_position", "railway": "tram_stop", "ref": "A1", "tram": "yes", "wikidata": "Q107999030"}}, {"type": "node", "id": 1525835703, "lat": 57.6921408, "lon": 11.9524694, "tags": {"bus": "yes", "highway": "bus_stop", "name": "Olivedalsgatan", "network": "V\u00e4sttrafik", "network:wikidata": "Q928178", "network:wikipedia": "sv:V\u00e4sttrafik", "operator": "G\u00f6teborgs Sp\u00e5rv\u00e4gar", "operator:wikidata": "Q10512910", "public_transport": "stop_position", "railway": "tram_stop", "ref": "B", "tram": "yes", "wikidata": "Q107999398"}}, {"type": "node", "id": 1540463253, "lat": 57.7055115, "lon": 11.9399018}, {"type": "node", "id": 1570029364, "lat": 57.6991712, "lon": 11.9694221, "tags": {"bus": "yes", "highway": "bus_stop", "name": "Vasaplatsen", "network": "V\u00e4sttrafik", "network:wikidata": "Q928178", "network:wikipedia": "sv:V\u00e4sttrafik", "operator": "G\u00f6teborgs Sp\u00e5rv\u00e4gar", "operator:wikidata": "Q10512910", "public_transport": "stop_position", "railway": "tram_stop", "ref": "D", "tram": "yes", "wikidata": "Q107999423"}}, {"type": "node", "id": 1570029365, "lat": 57.6994174, "lon": 11.9693282, "tags": {"bus": "yes", "highway": "bus_stop", "local_ref": "C", "name": "Vasaplatsen", "network": "V\u00e4sttrafik", "network:wikidata": "Q928178", "network:wikipedia": "sv:V\u00e4sttrafik", "operator": "G\u00f6teborgs Sp\u00e5rv\u00e4gar", "operator:wikidata": "Q10512910", "public_transport": "stop_position", "railway": "tram_stop", "ref": "C", "tram": "yes", "wikidata": "Q107999423"}}, {"type": "node", "id": 1570029401, "lat": 57.6991279, "lon": 11.9693959}, {"type": "node", "id": 1570029402, "lat": 57.6991125, "lon": 11.96952}, {"type": "node", "id": 1570029406, "lat": 57.6995589, "lon": 11.9691559}, {"type": "node", "id": 1570029407, "lat": 57.6995263, "lon": 11.9692907}, {"type": "node", "id": 1570146689, "lat": 57.7042393, "lon": 11.9636908, "tags": {"bus": "yes", "highway": "bus_stop", "name": "Domkyrkan", "network": "V\u00e4sttrafik", "network:wikidata": "Q928178", "network:wikipedia": "sv:V\u00e4sttrafik", "operator": "G\u00f6teborgs Sp\u00e5rv\u00e4gar", "operator:wikidata": "Q10512910", "public_transport": "stop_position", "railway": "tram_stop", "ref": "B", "tram": "yes"}}, {"type": "node", "id": 1570146695, "lat": 57.7043165, "lon": 11.9637167, "tags": {"bus": "yes", "highway": "bus_stop", "name": "Domkyrkan", "network": "V\u00e4sttrafik", "network:wikidata": "Q928178", "network:wikipedia": "sv:V\u00e4sttrafik", "operator": "G\u00f6teborgs Sp\u00e5rv\u00e4gar", "operator:wikidata": "Q10512910", "public_transport": "stop_position", "railway": "tram_stop", "ref": "A", "tram": "yes"}}, {"type": "node", "id": 1570146707, "lat": 57.7024365, "lon": 11.9649306, "tags": {"bus": "yes", "highway": "bus_stop", "name": "Gr\u00f6nsakstorget", "network": "V\u00e4sttrafik", "network:wikidata": "Q928178", "network:wikipedia": "sv:V\u00e4sttrafik", "operator": "G\u00f6teborgs Sp\u00e5rv\u00e4gar", "operator:wikidata": "Q10512910", "public_transport": "stop_position", "railway": "tram_stop", "ref": "B", "tram": "yes", "wikidata": "Q107999063"}}, {"type": "node", "id": 1570146716, "lat": 57.7024564, "lon": 11.9649857, "tags": {"bus": "yes", "highway": "bus_stop", "name": "Gr\u00f6nsakstorget", "network": "V\u00e4sttrafik", "network:wikidata": "Q928178", "network:wikipedia": "sv:V\u00e4sttrafik", "operator": "G\u00f6teborgs Sp\u00e5rv\u00e4gar", "operator:wikidata": "Q10512910", "public_transport": "stop_position", "railway": "tram_stop", "ref": "A", "tram": "yes", "wikidata": "Q107999063"}}, {"type": "node", "id": 1570146729, "lat": 57.7025963, "lon": 11.9639594, "tags": {"bus": "yes", "highway": "bus_stop", "name": "Gr\u00f6nsakstorget", "network": "V\u00e4sttrafik", "network:wikidata": "Q928178", "network:wikipedia": "sv:V\u00e4sttrafik", "operator": "G\u00f6teborgs Sp\u00e5rv\u00e4gar", "operator:wikidata": "Q10512910", "public_transport": "stop_position", "railway": "tram_stop", "ref": "C", "tram": "yes", "wikidata": "Q107999063"}}, {"type": "node", "id": 1570146796, "lat": 57.7024703, "lon": 11.9636128}, {"type": "node", "id": 1570146802, "lat": 57.702586, "lon": 11.9640128}, {"type": "node", "id": 1570146817, "lat": 57.7040986, "lon": 11.9637368}, {"type": "node", "id": 1570146818, "lat": 57.7041162, "lon": 11.9638561}, {"type": "node", "id": 1570146827, "lat": 57.7044906, "lon": 11.9635266}, {"type": "node", "id": 1570146829, "lat": 57.70451, "lon": 11.9636384}, {"type": "node", "id": 1570367033, "lat": 57.7041317, "lon": 11.9696182, "tags": {"name": "Kungsportsplatsen", "network": "V\u00e4sttrafik", "network:wikidata": "Q928178", "operator": "G\u00f6teborgs Sp\u00e5rv\u00e4gar", "operator:wikidata": "Q10512910", "public_transport": "stop_position", "railway": "tram_stop", "ref": "A", "tram": "yes", "wikidata": "Q107998998"}}, {"type": "node", "id": 1570367149, "lat": 57.7038331, "lon": 11.9699413}, {"type": "node", "id": 1570367164, "lat": 57.7038194, "lon": 11.9697727}, {"type": "node", "id": 1570367168, "lat": 57.7038746, "lon": 11.970023}, {"type": "node", "id": 1570367172, "lat": 57.7040687, "lon": 11.9694093}, {"type": "node", "id": 1570367197, "lat": 57.7041527, "lon": 11.9694906}, {"type": "node", "id": 1629179245, "lat": 57.7076729, "lon": 11.9674403, "tags": {"bus": "yes", "highway": "bus_stop", "local_ref": "A3", "name": "Brunnsparken", "network": "V\u00e4sttrafik", "network:wikidata": "Q928178", "network:wikipedia": "sv:V\u00e4sttrafik", "public_transport": "stop_position", "ref": "A3"}}, {"type": "node", "id": 1649128437, "lat": 57.6992558, "lon": 11.9426455}, {"type": "node", "id": 1649128444, "lat": 57.6992819, "lon": 11.9426361}, {"type": "node", "id": 1649128463, "lat": 57.6993464, "lon": 11.9435171}, {"type": "node", "id": 1649128469, "lat": 57.6993726, "lon": 11.9435076}, {"type": "node", "id": 1649128473, "lat": 57.6993327, "lon": 11.942613}, {"type": "node", "id": 1649128482, "lat": 57.69936, "lon": 11.9426036}, {"type": "node", "id": 1649128507, "lat": 57.6994175, "lon": 11.9434775}, {"type": "node", "id": 1649128509, "lat": 57.6994449, "lon": 11.9434681}, {"type": "node", "id": 1678131041, "lat": 57.6964754, "lon": 11.9513521, "tags": {"bus": "yes", "highway": "bus_stop", "name": "Prinsgatan", "network": "V\u00e4sttrafik", "network:wikidata": "Q928178", "network:wikipedia": "sv:V\u00e4sttrafik", "operator": "G\u00f6teborgs Sp\u00e5rv\u00e4gar", "operator:wikidata": "Q10512910", "public_transport": "stop_position", "railway": "tram_stop", "ref": "B", "tram": "yes", "wikidata": "Q107999403"}}, {"type": "node", "id": 1691294724, "lat": 57.6993282, "lon": 11.9426724, "tags": {"name": "Masthuggstorget", "network": "V\u00e4sttrafik", "network:wikidata": "Q928178", "operator": "G\u00f6teborgs Sp\u00e5rv\u00e4gar", "operator:wikidata": "Q10512910", "public_transport": "stop_position", "railway": "tram_stop", "ref": "B", "tram": "yes", "wikidata": "Q17103418"}}, {"type": "node", "id": 1751728852, "lat": 57.7070897, "lon": 11.9679091}, {"type": "node", "id": 1753135234, "lat": 57.6918864, "lon": 11.9536809, "tags": {"name": "Olivedalsgatan", "network": "V\u00e4sttrafik", "network:wikidata": "Q928178", "operator": "G\u00f6teborgs Sp\u00e5rv\u00e4gar", "operator:wikidata": "Q10512910", "public_transport": "stop_position", "railway": "tram_stop", "ref": "C", "tram": "yes", "wikidata": "Q107999398"}}, {"type": "node", "id": 1753919829, "lat": 57.7070772, "lon": 11.9677929}, {"type": "node", "id": 1753919833, "lat": 57.7075148, "lon": 11.9675674}, {"type": "node", "id": 1756502645, "lat": 57.706598, "lon": 11.9687869}, {"type": "node", "id": 1756502646, "lat": 57.7067573, "lon": 11.969799}, {"type": "node", "id": 1756502670, "lat": 57.7079366, "lon": 11.9379198}, {"type": "node", "id": 1756502685, "lat": 57.7080549, "lon": 11.9381318}, {"type": "node", "id": 1756502687, "lat": 57.7080783, "lon": 11.9379136}, {"type": "node", "id": 1756502689, "lat": 57.708129, "lon": 11.9382053}, {"type": "node", "id": 1756502691, "lat": 57.7081313, "lon": 11.9379771}, {"type": "node", "id": 1756502692, "lat": 57.7082622, "lon": 11.9384389}, {"type": "node", "id": 1756502693, "lat": 57.7083166, "lon": 11.9382909}, {"type": "node", "id": 1759293581, "lat": 57.6993647, "lon": 11.9433281, "tags": {"name": "Masthuggstorget", "network": "V\u00e4sttrafik", "network:wikidata": "Q928178", "operator": "G\u00f6teborgs Sp\u00e5rv\u00e4gar", "operator:wikidata": "Q10512910", "public_transport": "stop_position", "railway": "tram_stop", "ref": "A", "tram": "yes", "wikidata": "Q17103418"}}, {"type": "node", "id": 1767990637, "lat": 57.6969026, "lon": 11.9512725}, {"type": "node", "id": 1767990652, "lat": 57.699574, "lon": 11.9630452}, {"type": "node", "id": 1767990654, "lat": 57.6995938, "lon": 11.962488}, {"type": "node", "id": 1767990665, "lat": 57.6999053, "lon": 11.9526989}, {"type": "node", "id": 1767990668, "lat": 57.6999541, "lon": 11.9531847}, {"type": "node", "id": 1768040496, "lat": 57.6996437, "lon": 11.9624545, "tags": {"name": "Hagakyrkan", "network": "V\u00e4sttrafik", "network:wikidata": "Q928178", "operator": "G\u00f6teborgs Sp\u00e5rv\u00e4gar", "operator:wikidata": "Q10512910", "public_transport": "stop_position", "railway": "tram_stop", "ref": "B", "tram": "yes", "wikidata": "Q107999663"}}, {"type": "node", "id": 1768040555, "lat": 57.6968917, "lon": 11.9511619}, {"type": "node", "id": 1768040559, "lat": 57.6996672, "lon": 11.9624514}, {"type": "node", "id": 1768040561, "lat": 57.6999688, "lon": 11.9526839}, {"type": "node", "id": 1768040563, "lat": 57.7000261, "lon": 11.953234}, {"type": "node", "id": 1770657980, "lat": 57.7067336, "lon": 11.9665431, "tags": {"bus": "yes", "highway": "bus_stop", "local_ref": "E3", "name": "Brunnsparken", "network": "V\u00e4sttrafik", "network:wikidata": "Q928178", "network:wikipedia": "sv:V\u00e4sttrafik", "public_transport": "stop_position", "ref": "E3"}}, {"type": "node", "id": 1770657981, "lat": 57.7068641, "lon": 11.967359, "tags": {"bus": "yes", "highway": "bus_stop", "local_ref": "E1", "name": "Brunnsparken", "network": "V\u00e4sttrafik", "network:wikidata": "Q928178", "network:wikipedia": "sv:V\u00e4sttrafik", "public_transport": "stop_position", "ref": "E1"}}, {"type": "node", "id": 1770657983, "lat": 57.7078755, "lon": 11.9675394, "tags": {"bus": "yes", "highway": "bus_stop", "local_ref": "A4", "name": "Brunnsparken", "network": "V\u00e4sttrafik", "network:wikidata": "Q928178", "network:wikipedia": "sv:V\u00e4sttrafik", "public_transport": "stop_position", "ref": "A4"}}, {"type": "node", "id": 1770657985, "lat": 57.7078954, "lon": 11.9675645}, {"type": "node", "id": 1776845148, "lat": 57.6996388, "lon": 11.9520696}, {"type": "node", "id": 1776845149, "lat": 57.6998176, "lon": 11.9520111}, {"type": "node", "id": 1777853557, "lat": 57.7013941, "lon": 11.949127}, {"type": "node", "id": 1777853558, "lat": 57.7014365, "lon": 11.9494262}, {"type": "node", "id": 1777853565, "lat": 57.7067806, "lon": 11.9670767}, {"type": "node", "id": 1777853566, "lat": 57.7067702, "lon": 11.9664617}, {"type": "node", "id": 1777853567, "lat": 57.7068326, "lon": 11.9674009}, {"type": "node", "id": 1777853568, "lat": 57.7068222, "lon": 11.9667859}, {"type": "node", "id": 1777853569, "lat": 57.7068504, "lon": 11.9669603}, {"type": "node", "id": 1777853570, "lat": 57.7069093, "lon": 11.9673334}, {"type": "node", "id": 1779559412, "lat": 57.6935505, "lon": 11.9405056}, {"type": "node", "id": 1779559414, "lat": 57.6935383, "lon": 11.9423254}, {"type": "node", "id": 1779559416, "lat": 57.6936595, "lon": 11.9405605}, {"type": "node", "id": 1779559417, "lat": 57.6935582, "lon": 11.9404263}, {"type": "node", "id": 1779559418, "lat": 57.6936784, "lon": 11.9404893}, {"type": "node", "id": 1779559419, "lat": 57.6940195, "lon": 11.9480292}, {"type": "node", "id": 1779559420, "lat": 57.694153, "lon": 11.9480284}, {"type": "node", "id": 1779559421, "lat": 57.694116, "lon": 11.9482703}, {"type": "node", "id": 1779559422, "lat": 57.6942534, "lon": 11.9482684}, {"type": "node", "id": 1779559427, "lat": 57.6949658, "lon": 11.9396007}, {"type": "node", "id": 1779559428, "lat": 57.6949598, "lon": 11.9397326}, {"type": "node", "id": 1779559429, "lat": 57.6950733, "lon": 11.9395907}, {"type": "node", "id": 1779559430, "lat": 57.6950838, "lon": 11.9397219}, {"type": "node", "id": 1779559432, "lat": 57.6956488, "lon": 11.9418803}, {"type": "node", "id": 1779559436, "lat": 57.6961987, "lon": 11.9482251}, {"type": "node", "id": 1779559437, "lat": 57.6962917, "lon": 11.9480196}, {"type": "node", "id": 1779559438, "lat": 57.6963382, "lon": 11.9482267}, {"type": "node", "id": 1779559440, "lat": 57.6974167, "lon": 11.9505068}, {"type": "node", "id": 1779559441, "lat": 57.6974359, "lon": 11.9507176}, {"type": "node", "id": 1779559442, "lat": 57.7070635, "lon": 11.9684632}, {"type": "node", "id": 1779559443, "lat": 57.7072227, "lon": 11.9694561}, {"type": "node", "id": 1799551150, "lat": 57.7065364, "lon": 11.9688152}, {"type": "node", "id": 1799551152, "lat": 57.7066999, "lon": 11.969831}, {"type": "node", "id": 1912807918, "lat": 57.6982697, "lon": 11.9664019}, {"type": "node", "id": 1912807926, "lat": 57.6983492, "lon": 11.9668941}, {"type": "node", "id": 1912807941, "lat": 57.6981701, "lon": 11.967051}, {"type": "node", "id": 1912807949, "lat": 57.6980884, "lon": 11.9665454}, {"type": "node", "id": 1916846197, "lat": 57.7071636, "lon": 11.9694865}, {"type": "node", "id": 1916846200, "lat": 57.7077573, "lon": 11.9676371}, {"type": "node", "id": 1916846208, "lat": 57.707756, "lon": 11.9673338}, {"type": "node", "id": 1916846210, "lat": 57.7076527, "lon": 11.967387}, {"type": "node", "id": 1916846213, "lat": 57.706229, "lon": 11.9665574, "tags": {"local_ref": "D2", "name": "Brunnsparken", "network": "V\u00e4sttrafik", "network:wikidata": "Q928178", "operator": "G\u00f6teborgs Sp\u00e5rv\u00e4gar", "operator:wikidata": "Q10512910", "public_transport": "stop_position", "railway": "tram_stop", "ref": "D2", "tram": "yes", "wikidata": "Q107999030"}}, {"type": "node", "id": 1916846221, "lat": 57.7062623, "lon": 11.9669441, "tags": {"local_ref": "D1", "name": "Brunnsparken", "network": "V\u00e4sttrafik", "network:wikidata": "Q928178", "operator": "G\u00f6teborgs Sp\u00e5rv\u00e4gar", "operator:wikidata": "Q10512910", "public_transport": "stop_position", "railway": "tram_stop", "ref": "D1", "tram": "yes", "wikidata": "Q107999030"}}, {"type": "node", "id": 1916846225, "lat": 57.7075264, "lon": 11.9676813}, {"type": "node", "id": 1916846232, "lat": 57.7068068, "lon": 11.9670159, "tags": {"bus": "yes", "highway": "bus_stop", "local_ref": "E2", "name": "Brunnsparken", "network": "V\u00e4sttrafik", "network:wikidata": "Q928178", "network:wikipedia": "sv:V\u00e4sttrafik", "public_transport": "stop_position", "ref": "E2"}}, {"type": "node", "id": 2020117360, "lat": 57.6935574, "lon": 11.9404656, "tags": {"bus": "yes", "highway": "bus_stop", "name": "Bockhornsgatan", "network": "V\u00e4sttrafik", "network:wikidata": "Q928178", "network:wikipedia": "sv:V\u00e4sttrafik", "public_transport": "stop_position", "ref": "A"}}, {"type": "node", "id": 2020186634, "lat": 57.6956823, "lon": 11.9419788, "tags": {"bus": "yes", "highway": "bus_stop", "name": "Paradisgatan", "network": "V\u00e4sttrafik", "network:wikidata": "Q928178", "network:wikipedia": "sv:V\u00e4sttrafik", "public_transport": "stop_position", "ref": "A"}}, {"type": "node", "id": 2020186636, "lat": 57.6957272, "lon": 11.9421973, "tags": {"bus": "yes", "highway": "bus_stop", "name": "Paradisgatan", "network": "V\u00e4sttrafik", "network:wikidata": "Q928178", "network:wikipedia": "sv:V\u00e4sttrafik", "public_transport": "stop_position", "ref": "B"}}, {"type": "node", "id": 2035610206, "lat": 57.6920825, "lon": 11.9524269}, {"type": "node", "id": 2087898166, "lat": 57.6941944, "lon": 11.9362536, "tags": {"name": "Fj\u00e4llgatan", "network": "V\u00e4sttrafik", "network:wikidata": "Q928178", "operator": "G\u00f6teborgs Sp\u00e5rv\u00e4gar", "operator:wikidata": "Q10512910", "public_transport": "stop_position", "railway": "tram_stop", "ref": "B", "tram": "yes", "wikidata": "Q16935514"}}, {"type": "node", "id": 2087898167, "lat": 57.69443, "lon": 11.9362249, "tags": {"name": "Fj\u00e4llgatan", "network": "V\u00e4sttrafik", "network:wikidata": "Q928178", "network:wikipedia": "sv:V\u00e4sttrafik", "operator": "G\u00f6teborgs Sp\u00e5rv\u00e4gar", "operator:wikidata": "Q10512910", "public_transport": "stop_position", "railway": "tram_stop", "ref": "A", "tram": "yes", "wikidata": "Q16935514"}}, {"type": "node", "id": 2087898337, "lat": 57.6941656, "lon": 11.9362364}, {"type": "node", "id": 2087898340, "lat": 57.694282, "lon": 11.9363042}, {"type": "node", "id": 2087922967, "lat": 57.6936796, "lon": 11.9591759, "tags": {"name": "Brunnsgatan", "network": "V\u00e4sttrafik", "network:wikidata": "Q928178", "operator": "G\u00f6teborgs Sp\u00e5rv\u00e4gar", "operator:wikidata": "Q10512910", "public_transport": "stop_position", "railway": "tram_stop", "ref": "B", "tram": "yes", "wikidata": "Q107999029"}}, {"type": "node", "id": 2087922968, "lat": 57.693785, "lon": 11.959526, "tags": {"name": "Brunnsgatan", "network": "V\u00e4sttrafik", "network:wikidata": "Q928178", "operator": "G\u00f6teborgs Sp\u00e5rv\u00e4gar", "operator:wikidata": "Q10512910", "public_transport": "stop_position", "railway": "tram_stop", "ref": "A", "tram": "yes", "wikidata": "Q107999029"}}, {"type": "node", "id": 2087922969, "lat": 57.696179, "lon": 11.9624549, "tags": {"name": "Handelsh\u00f6gskolan", "network": "V\u00e4sttrafik", "network:wikidata": "Q928178", "operator": "G\u00f6teborgs Sp\u00e5rv\u00e4gar", "operator:wikidata": "Q10512910", "public_transport": "stop_position", "railway": "tram_stop", "ref": "A", "tram": "yes", "wikidata": "Q107999342"}}, {"type": "node", "id": 2087922970, "lat": 57.6965303, "lon": 11.9625825, "tags": {"name": "Handelsh\u00f6gskolan", "network": "V\u00e4sttrafik", "network:wikidata": "Q928178", "operator": "G\u00f6teborgs Sp\u00e5rv\u00e4gar", "operator:wikidata": "Q10512910", "public_transport": "stop_position", "railway": "tram_stop", "ref": "B", "tram": "yes", "wikidata": "Q107999342"}}, {"type": "node", "id": 2087922974, "lat": 57.6920634, "lon": 11.9571597, "tags": {"name": "Seminariegatan", "network": "V\u00e4sttrafik", "network:wikidata": "Q928178", "operator": "G\u00f6teborgs Sp\u00e5rv\u00e4gar", "operator:wikidata": "Q10512910", "public_transport": "stop_position", "railway": "tram_stop", "ref": "B", "tram": "yes", "wikidata": "Q107999414"}}, {"type": "node", "id": 2087922975, "lat": 57.6923509, "lon": 11.9575419, "tags": {"name": "Seminariegatan", "network": "V\u00e4sttrafik", "network:wikidata": "Q928178", "operator": "G\u00f6teborgs Sp\u00e5rv\u00e4gar", "operator:wikidata": "Q10512910", "public_transport": "stop_position", "railway": "tram_stop", "ref": "A", "tram": "yes", "wikidata": "Q107999414"}}, {"type": "node", "id": 2087922989, "lat": 57.6918728, "lon": 11.953105}, {"type": "node", "id": 2087922996, "lat": 57.6920197, "lon": 11.9572043}, {"type": "node", "id": 2087922998, "lat": 57.6920883, "lon": 11.9571538}, {"type": "node", "id": 2087922999, "lat": 57.6923809, "lon": 11.9576101}, {"type": "node", "id": 2087923000, "lat": 57.6923402, "lon": 11.9574263}, {"type": "node", "id": 2087923014, "lat": 57.6936296, "lon": 11.959186}, {"type": "node", "id": 2087923018, "lat": 57.6936708, "lon": 11.9590955}, {"type": "node", "id": 2087923023, "lat": 57.6937527, "lon": 11.9594825}, {"type": "node", "id": 2087923026, "lat": 57.6937912, "lon": 11.9595908}, {"type": "node", "id": 2087923029, "lat": 57.6938451, "lon": 11.9595384}, {"type": "node", "id": 2087923061, "lat": 57.695977, "lon": 11.9623102}, {"type": "node", "id": 2087923065, "lat": 57.6961756, "lon": 11.9625007}, {"type": "node", "id": 2087923075, "lat": 57.6965215, "lon": 11.9625521}, {"type": "node", "id": 2087923076, "lat": 57.6968007, "lon": 11.9625917}, {"type": "node", "id": 2157196679, "lat": 57.7062156, "lon": 11.9667659}, {"type": "node", "id": 2157196680, "lat": 57.7062418, "lon": 11.9665553}, {"type": "node", "id": 2157196681, "lat": 57.7062455, "lon": 11.9669738}, {"type": "node", "id": 2157196682, "lat": 57.7062808, "lon": 11.9668145}, {"type": "node", "id": 2157387072, "lat": 57.6998828, "lon": 11.9522712}, {"type": "node", "id": 2157387073, "lat": 57.7000873, "lon": 11.9521998}, {"type": "node", "id": 2160061753, "lat": 57.6950693, "lon": 11.9389354, "tags": {"bus": "yes", "highway": "bus_stop", "name": "Fj\u00e4llskolan", "network": "V\u00e4sttrafik", "network:wikidata": "Q928178", "network:wikipedia": "sv:V\u00e4sttrafik", "public_transport": "stop_position", "ref": "D"}}, {"type": "node", "id": 2160061754, "lat": 57.6951284, "lon": 11.939107, "tags": {"bus": "yes", "highway": "bus_stop", "name": "Fj\u00e4llskolan", "network": "V\u00e4sttrafik", "network:wikidata": "Q928178", "network:wikipedia": "sv:V\u00e4sttrafik", "public_transport": "stop_position", "ref": "C"}}, {"type": "node", "id": 2160061755, "lat": 57.6950279, "lon": 11.9389615}, {"type": "node", "id": 2160061757, "lat": 57.6950919, "lon": 11.9391438}, {"type": "node", "id": 2160061758, "lat": 57.6951672, "lon": 11.9390494}, {"type": "node", "id": 2214970891, "lat": 57.6966437, "lon": 11.9603358}, {"type": "node", "id": 2214970893, "lat": 57.6966904, "lon": 11.960224}, {"type": "node", "id": 2352549855, "lat": 57.6967785, "lon": 11.9603338, "tags": {"bus": "yes", "highway": "bus_stop", "name": "Pilgatan", "network": "V\u00e4sttrafik", "network:wikidata": "Q928178", "network:wikipedia": "sv:V\u00e4sttrafik", "public_transport": "stop_position", "ref": "A"}}, {"type": "node", "id": 2352549877, "lat": 57.696691, "lon": 11.9602886, "tags": {"bus": "yes", "highway": "bus_stop", "name": "Pilgatan", "network": "V\u00e4sttrafik", "network:wikidata": "Q928178", "network:wikipedia": "sv:V\u00e4sttrafik", "public_transport": "stop_position", "ref": "B"}}, {"type": "node", "id": 2409284574, "lat": 57.7054848, "lon": 11.9573353}, {"type": "node", "id": 2409284576, "lat": 57.705482, "lon": 11.9573517}, {"type": "node", "id": 2409284577, "lat": 57.7055089, "lon": 11.9573559}, {"type": "node", "id": 2409284579, "lat": 57.7055051, "lon": 11.9573952}, {"type": "node", "id": 2409284589, "lat": 57.7055556, "lon": 11.9574032}, {"type": "node", "id": 2409284596, "lat": 57.7055964, "lon": 11.9574598}, {"type": "node", "id": 2409284607, "lat": 57.7056555, "lon": 11.9572989}, {"type": "node", "id": 2409284608, "lat": 57.705681, "lon": 11.9574349}, {"type": "node", "id": 2409284617, "lat": 57.7059039, "lon": 11.9579893}, {"type": "node", "id": 2409284618, "lat": 57.7059023, "lon": 11.9580805}, {"type": "node", "id": 2409284620, "lat": 57.7059436, "lon": 11.9579009}, {"type": "node", "id": 2409284621, "lat": 57.7059458, "lon": 11.9581331}, {"type": "node", "id": 2409284623, "lat": 57.7059812, "lon": 11.9578671}, {"type": "node", "id": 2409284625, "lat": 57.7059975, "lon": 11.9581502}, {"type": "node", "id": 2409284626, "lat": 57.7060144, "lon": 11.957938}, {"type": "node", "id": 2409284628, "lat": 57.7060332, "lon": 11.9580495}, {"type": "node", "id": 2409284629, "lat": 57.7060425, "lon": 11.9580248}, {"type": "node", "id": 2582722054, "lat": 57.7074908, "lon": 11.9676673, "tags": {"bus": "yes", "highway": "bus_stop", "local_ref": "A2", "name": "Brunnsparken", "network": "V\u00e4sttrafik", "network:wikidata": "Q928178", "network:wikipedia": "sv:V\u00e4sttrafik", "operator": "G\u00f6teborgs Sp\u00e5rv\u00e4gar", "operator:wikidata": "Q10512910", "public_transport": "stop_position", "railway": "tram_stop", "ref": "A2", "tram": "yes", "wikidata": "Q107999030"}}, {"type": "node", "id": 2924898119, "lat": 57.7041944, "lon": 11.96958}, {"type": "node", "id": 3363595652, "lat": 57.6920737, "lon": 11.952537}, {"type": "node", "id": 3382753167, "lat": 57.69643, "lon": 11.9480265}, {"type": "node", "id": 3390680806, "lat": 57.6918679, "lon": 11.9537817}, {"type": "node", "id": 3390680807, "lat": 57.6919364, "lon": 11.9537651}, {"type": "node", "id": 3390680808, "lat": 57.6919437, "lon": 11.9531173}, {"type": "node", "id": 3392707919, "lat": 57.6957805, "lon": 11.9421303}, {"type": "node", "id": 3392707920, "lat": 57.6958241, "lon": 11.942362}, {"type": "node", "id": 3395041537, "lat": 57.691927, "lon": 11.9531867, "tags": {"name": "Olivedalsgatan", "network": "V\u00e4sttrafik", "network:wikidata": "Q928178", "operator": "G\u00f6teborgs Sp\u00e5rv\u00e4gar", "operator:wikidata": "Q10512910", "public_transport": "stop_position", "railway": "tram_stop", "ref": "D", "tram": "yes"}}, {"type": "node", "id": 3406906493, "lat": 57.6985943, "lon": 11.9653606, "tags": {"bench": "no", "bin": "no", "bus": "yes", "description": "Reservh\u00e5llplats", "highway": "platform", "lit": "yes", "name": "C", "network": "V\u00e4sttrafik", "public_transport": "platform", "ref": "C", "shelter": "no", "tactile_paving": "no"}}, {"type": "node", "id": 3461393834, "lat": 57.6956576, "lon": 11.9420127}, {"type": "node", "id": 3461420530, "lat": 57.6951163, "lon": 11.9389005}, {"type": "node", "id": 3555894081, "lat": 57.6948133, "lon": 11.9464045, "tags": {"bus": "yes", "highway": "bus_stop", "name": "Jungmansgatan", "network": "V\u00e4sttrafik", "network:wikidata": "Q928178", "network:wikipedia": "sv:V\u00e4sttrafik", "public_transport": "stop_position", "ref": "B"}}, {"type": "node", "id": 3555894082, "lat": 57.6947226, "lon": 11.9464284, "tags": {"bus": "yes", "highway": "bus_stop", "name": "Jungmansgatan", "network": "V\u00e4sttrafik", "network:wikidata": "Q928178", "network:wikipedia": "sv:V\u00e4sttrafik", "public_transport": "stop_position", "ref": "A"}}, {"type": "node", "id": 3556471604, "lat": 57.6947176, "lon": 11.946341}, {"type": "node", "id": 3556471605, "lat": 57.6946916, "lon": 11.9465235}, {"type": "node", "id": 3556471608, "lat": 57.6948489, "lon": 11.9463029}, {"type": "node", "id": 3556471609, "lat": 57.6948235, "lon": 11.9464869}, {"type": "node", "id": 3707818835, "lat": 57.70566, "lon": 11.9574354, "tags": {"bus": "yes", "highway": "bus_stop", "name": "Stenpiren", "network": "V\u00e4sttrafik", "network:wikidata": "Q928178", "network:wikipedia": "sv:V\u00e4sttrafik", "operator": "G\u00f6teborgs Sp\u00e5rv\u00e4gar", "operator:wikidata": "Q10512910", "public_transport": "stop_position", "railway": "tram_stop", "ref": "B", "tram": "yes", "wikidata": "Q107999008"}}, {"type": "node", "id": 3707818836, "lat": 57.7057186, "lon": 11.9573624, "tags": {"bus": "yes", "highway": "bus_stop", "name": "Stenpiren", "network": "V\u00e4sttrafik", "network:wikidata": "Q928178", "network:wikipedia": "sv:V\u00e4sttrafik", "public_transport": "stop_position", "ref": "D"}}, {"type": "node", "id": 3707818837, "lat": 57.7058325, "lon": 11.958017, "tags": {"bus": "yes", "highway": "bus_stop", "name": "Stenpiren", "network": "V\u00e4sttrafik", "network:wikidata": "Q928178", "network:wikipedia": "sv:V\u00e4sttrafik", "public_transport": "stop_position", "ref": "C"}}, {"type": "node", "id": 3707818838, "lat": 57.7059606, "lon": 11.9580454, "tags": {"bus": "yes", "highway": "bus_stop", "name": "Stenpiren", "network": "V\u00e4sttrafik", "network:wikidata": "Q928178", "network:wikipedia": "sv:V\u00e4sttrafik", "operator": "G\u00f6teborgs Sp\u00e5rv\u00e4gar", "operator:wikidata": "Q10512910", "public_transport": "stop_position", "railway": "tram_stop", "ref": "A", "tram": "yes", "wikidata": "Q107999008"}}, {"type": "node", "id": 3707818839, "lat": 57.7059048, "lon": 11.9565657, "tags": {"amenity": "ferry_terminal", "cargo": "passengers", "ferry": "yes", "name": "Stenpiren", "network": "V\u00e4sttrafik", "network:wikidata": "Q928178", "network:wikipedia": "sv:V\u00e4sttrafik", "public_transport": "stop_position", "ref": "E", "wheelchair": "yes"}}, {"type": "node", "id": 3707818840, "lat": 57.7055468, "lon": 11.9575885}, {"type": "node", "id": 3707818841, "lat": 57.7057144, "lon": 11.9573037}, {"type": "node", "id": 3707818842, "lat": 57.7057883, "lon": 11.9565971}, {"type": "node", "id": 3707818845, "lat": 57.7058174, "lon": 11.9580476}, {"type": "node", "id": 3707818847, "lat": 57.7059668, "lon": 11.9577441}, {"type": "node", "id": 3707818850, "lat": 57.7061925, "lon": 11.9564949}, {"type": "node", "id": 3797295350, "lat": 57.7055844, "lon": 11.9575246}, {"type": "node", "id": 3797295351, "lat": 57.7056089, "lon": 11.9574831}, {"type": "node", "id": 3797295353, "lat": 57.7056595, "lon": 11.957397}, {"type": "node", "id": 3797295354, "lat": 57.705686, "lon": 11.957352}, {"type": "node", "id": 3797311057, "lat": 57.7058473, "lon": 11.9579868}, {"type": "node", "id": 3797311062, "lat": 57.7059135, "lon": 11.9578526}, {"type": "node", "id": 3797311063, "lat": 57.7059407, "lon": 11.9577972}, {"type": "node", "id": 3966977324, "lat": 57.7012223, "lon": 11.9538311, "tags": {"bus": "yes", "highway": "bus_stop", "name": "J\u00e4rntorget", "network": "V\u00e4sttrafik", "network:wikidata": "Q928178", "network:wikipedia": "sv:V\u00e4sttrafik", "public_transport": "stop_position", "ref": "K"}}, {"type": "node", "id": 3991376420, "lat": 57.7008754, "lon": 11.9538936, "tags": {"bus": "yes", "highway": "bus_stop", "name": "J\u00e4rntorget", "network": "V\u00e4sttrafik", "network:wikidata": "Q928178", "network:wikipedia": "sv:V\u00e4sttrafik", "public_transport": "stop_position", "ref": "L"}}, {"type": "node", "id": 4396400391, "lat": 57.6985878, "lon": 11.9653185, "tags": {"name": "Vasa Viktoriagatan", "network": "V\u00e4sttrafik", "network:wikidata": "Q928178", "operator": "G\u00f6teborgs Sp\u00e5rv\u00e4gar", "operator:wikidata": "Q10512910", "public_transport": "stop_position", "railway": "tram_stop", "ref": "C", "tram": "yes", "wikidata": "Q107999422"}}, {"type": "node", "id": 4779682525, "lat": 57.7060874, "lon": 11.9565197, "tags": {"amenity": "ferry_terminal", "cargo": "passengers", "ferry": "yes", "name": "Stenpiren", "network": "V\u00e4sttrafik", "network:wikidata": "Q928178", "network:wikipedia": "sv:V\u00e4sttrafik", "public_transport": "stop_position", "ref": "E", "wheelchair": "yes"}}, {"type": "node", "id": 5764245692, "lat": 57.7008027, "lon": 11.9537789}, {"type": "node", "id": 5802347902, "lat": 57.7012426, "lon": 11.9537458}, {"type": "node", "id": 5802347903, "lat": 57.7013985, "lon": 11.9536933}, {"type": "node", "id": 7299979089, "lat": 57.7001454, "lon": 11.951236}, {"type": "node", "id": 7299979090, "lat": 57.7001272, "lon": 11.9510519}, {"type": "node", "id": 7299979091, "lat": 57.7001775, "lon": 11.9510428}, {"type": "node", "id": 7299979092, "lat": 57.7001957, "lon": 11.9512302}, {"type": "node", "id": 7704945380, "lat": 57.6999974, "lon": 11.9519457}, {"type": "node", "id": 8711148181, "lat": 57.6924508, "lon": 11.9526212}, {"type": "node", "id": 8711148207, "lat": 57.6964392, "lon": 11.9514504}, {"type": "node", "id": 8711148208, "lat": 57.6964247, "lon": 11.9513392}, {"type": "node", "id": 8711163221, "lat": 57.6922912, "lon": 11.9524769}, {"type": "node", "id": 8711163222, "lat": 57.6924617, "lon": 11.9525091}, {"type": "node", "id": 8857801496, "lat": 57.7009587, "lon": 11.9538811}, {"type": "node", "id": 8857824326, "lat": 57.7001755, "lon": 11.953105}, {"type": "node", "id": 8857879976, "lat": 57.7059955, "lon": 11.9581624}, {"type": "node", "id": 8857879979, "lat": 57.7060404, "lon": 11.9580493}, {"type": "node", "id": 8857879980, "lat": 57.7060438, "lon": 11.9580383}, {"type": "node", "id": 8857879981, "lat": 57.7056111, "lon": 11.9572753}, {"type": "node", "id": 8857879982, "lat": 57.7056034, "lon": 11.9572753}, {"type": "node", "id": 8857879983, "lat": 57.705598, "lon": 11.9572795}, {"type": "node", "id": 8857879984, "lat": 57.7056018, "lon": 11.9572918}, {"type": "node", "id": 9009556342, "lat": 57.693557, "lon": 11.9425765}, {"type": "node", "id": 9036494975, "lat": 57.6936925, "lon": 11.9593316}, {"type": "node", "id": 9036494983, "lat": 57.6937681, "lon": 11.9593303}, {"type": "node", "id": 9239162682, "lat": 57.7081339, "lon": 11.9382139}, {"type": "node", "id": 9239162688, "lat": 57.7079467, "lon": 11.9376835}, {"type": "node", "id": 9367391436, "lat": 57.7026532, "lon": 11.9639564}, {"type": "node", "id": 9367391437, "lat": 57.7025278, "lon": 11.9635152}, {"type": "node", "id": 9367391442, "lat": 57.7024796, "lon": 11.9636024}, {"type": "node", "id": 9367391447, "lat": 57.7022494, "lon": 11.9651473}, {"type": "node", "id": 9367391449, "lat": 57.702569, "lon": 11.9647115}, {"type": "node", "id": 9367391451, "lat": 57.7026711, "lon": 11.964739}, {"type": "node", "id": 9367391453, "lat": 57.7023365, "lon": 11.9651755}, {"type": "node", "id": 9768720387, "lat": 57.7070029, "lon": 11.9684848}, {"type": "node", "id": 9955343866, "lat": 57.7071764, "lon": 11.9694639, "tags": {"bus": "yes", "highway": "bus_stop", "local_ref": "B2", "name": "Brunnsparken", "network": "V\u00e4sttrafik", "network:wikidata": "Q928178", "network:wikipedia": "sv:V\u00e4sttrafik", "operator": "G\u00f6teborgs Sp\u00e5rv\u00e4gar", "operator:wikidata": "Q10512910", "public_transport": "stop_position", "railway": "tram_stop", "ref": "B2", "tram": "yes", "wikidata": "Q107999030"}}, {"type": "node", "id": 9956964469, "lat": 57.6984403, "lon": 11.9652955, "tags": {"bench": "no", "bin": "no", "bus": "yes", "description": "Reservh\u00e5llplats", "highway": "platform", "lit": "yes", "name": "D", "network": "V\u00e4sttrafik", "public_transport": "platform", "ref": "D", "shelter": "no", "tactile_paving": "no"}}, {"type": "node", "id": 9956964470, "lat": 57.6984459, "lon": 11.9653351, "tags": {"name": "Vasa Viktoriagatan", "network": "V\u00e4sttrafik", "network:wikidata": "Q928178", "operator": "G\u00f6teborgs Sp\u00e5rv\u00e4gar", "operator:wikidata": "Q10512910", "public_transport": "stop_position", "railway": "tram_stop", "ref": "D", "tram": "yes", "wikidata": "Q107999422"}}, {"type": "node", "id": 11115197652, "lat": 57.6949675, "lon": 11.9396791, "tags": {"bus": "yes", "highway": "bus_stop", "name": "Fj\u00e4llskolan", "network": "V\u00e4sttrafik", "network:wikidata": "Q928178", "network:wikipedia": "sv:V\u00e4sttrafik", "public_transport": "stop_position", "ref": "B"}}, {"type": "node", "id": 11185269934, "lat": 57.6967924, "lon": 11.9604131}, {"type": "node", "id": 11185332437, "lat": 57.6968189, "lon": 11.9602913}, {"type": "node", "id": 11185552410, "lat": 57.6944452, "lon": 11.9361335}, {"type": "node", "id": 11185552411, "lat": 57.6944629, "lon": 11.936243}, {"type": "node", "id": 11530492565, "lat": 57.7055473, "lon": 11.9397276, "tags": {"amenity": "ferry_terminal", "cargo": "passengers", "ferry": "yes", "name": "Lindholmspiren", "network": "V\u00e4sttrafik", "network:wikidata": "Q928178", "network:wikipedia": "sv:V\u00e4sttrafik", "public_transport": "stop_position", "ref": "A", "wheelchair": "yes"}}, {"type": "node", "id": 11530492566, "lat": 57.7055022, "lon": 11.9397633}, {"type": "node", "id": 11530559470, "lat": 57.7055702, "lon": 11.93971}, {"type": "node", "id": 11734175391, "lat": 57.6992709, "lon": 11.94264}, {"type": "node", "id": 11736871361, "lat": 57.6993454, "lon": 11.9426086}, {"type": "node", "id": 11736871363, "lat": 57.6994332, "lon": 11.9434721}, {"type": "node", "id": 12251171732, "lat": 57.6996469, "lon": 11.9631044}, {"type": "node", "id": 13275048168, "lat": 57.7082649, "lon": 11.9383995, "tags": {"name": "Lindholmen", "network": "V\u00e4sttrafik", "network:wikidata": "Q928178", "operator": "G\u00f6teborgs Sp\u00e5rv\u00e4gar", "operator:wikidata": "Q10512910", "public_transport": "stop_position", "railway": "tram_stop", "tram": "yes"}}, {"type": "node", "id": 13275048169, "lat": 57.7080307, "lon": 11.9378885, "tags": {"name": "Lindholmen", "network": "V\u00e4sttrafik", "network:wikidata": "Q928178", "operator": "G\u00f6teborgs Sp\u00e5rv\u00e4gar", "operator:wikidata": "Q10512910", "public_transport": "stop_position", "railway": "tram_stop", "tram": "yes"}}, {"type": "way", "id": 48733555, "nodes": [618562112, 618562115], "tags": {"bench": "yes", "bin": "yes", "lit": "yes", "name": "B", "network": "V\u00e4sttrafik", "public_transport": "platform", "railway": "platform", "ref": "B", "shelter": "yes", "tactile_paving": "yes", "tram": "yes"}}, {"type": "way", "id": 143485149, "nodes": [1570029402, 1570029407], "tags": {"bench": "yes", "bin": "yes", "bus": "yes", "gtfs:stop_id": "9022050032099003", "highway": "platform", "lit": "yes", "name": "C", "network": "V\u00e4sttrafik", "public_transport": "platform", "railway": "platform", "ref": "C", "shelter": "yes", "tactile_paving": "yes", "tram": "yes"}}, {"type": "way", "id": 143485151, "nodes": [1570029406, 1570029401], "tags": {"bench": "yes", "bin": "yes", "bus": "yes", "gtfs:stop_id": "9022050032099004", "highway": "platform", "lit": "yes", "name": "D", "network": "V\u00e4sttrafik", "public_transport": "platform", "railway": "platform", "ref": "D", "shelter": "yes", "tactile_paving": "yes", "tram": "yes"}}, {"type": "way", "id": 143492715, "nodes": [1570146827, 1570146817], "tags": {"bench": "yes", "bin": "yes", "bus": "yes", "gtfs:stop_id": "9022050031578002", "highway": "platform", "kerb": "raised", "kerb:approach_aid": "yes", "lit": "yes", "name": "B", "network": "V\u00e4sttrafik", "passenger_information_display": "yes", "passenger_information_display:speech_output": "no", "public_transport": "platform", "railway": "platform", "ref": "B", "shelter": "yes", "surface": "paved", "tactile_paving": "yes", "tram": "yes"}}, {"type": "way", "id": 143492717, "nodes": [1570146818, 1570146829], "tags": {"bench": "yes", "bin": "yes", "bus": "yes", "gtfs:stop_id": "9022050031578001", "highway": "platform", "kerb": "raised", "kerb:approach_aid": "yes", "lit": "yes", "name": "A", "network": "V\u00e4sttrafik", "passenger_information_display": "yes", "passenger_information_display:speech_output": "no", "public_transport": "platform", "railway": "platform", "ref": "A", "shelter": "yes", "surface": "paved", "tactile_paving": "yes", "tram": "yes"}}, {"type": "way", "id": 143492719, "nodes": [9367391436, 9367391437], "tags": {"bench": "yes", "bin": "yes", "bus": "yes", "gtfs:stop_id": "9022050031656004", "kerb": "raised", "kerb:approach_aid": "yes", "lit": "yes", "name": "D", "network": "V\u00e4sttrafik", "passenger_information_display": "yes", "passenger_information_display:speech_output": "no", "public_transport": "platform", "railway": "platform", "ref": "D", "shelter": "yes", "surface": "paved", "tactile_paving": "no", "tram": "yes"}}, {"type": "way", "id": 143492720, "nodes": [1570146796, 9367391442, 1570146802], "tags": {"bench": "yes", "bin": "yes", "bus": "yes", "gtfs:stop_id": "9022050031656003", "highway": "platform", "kerb": "raised", "kerb:approach_aid": "yes", "lit": "yes", "name": "C", "network": "V\u00e4sttrafik", "passenger_information_display": "yes", "passenger_information_display:speech_output": "no", "public_transport": "platform", "railway": "platform", "ref": "C", "shelter": "yes", "surface": "paved", "tactile_paving": "no", "tram": "yes"}}, {"type": "way", "id": 143511149, "nodes": [1570367168, 2924898119], "tags": {"bench": "yes", "bin": "yes", "lit": "yes", "name": "A", "network": "V\u00e4sttrafik", "passenger_information_display": "yes", "passenger_information_display:speech_output": "no", "public_transport": "platform", "railway": "platform", "ref": "A", "shelter": "yes", "surface": "paved", "tactile_paving": "yes", "tram": "yes"}}, {"type": "way", "id": 143511150, "nodes": [1570367172, 1570367164], "tags": {"bench": "yes", "bin": "yes", "bus": "yes", "gtfs:stop_id": "9022050031771004", "highway": "platform", "kerb": "raised", "kerb:approach_aid": "yes", "lit": "yes", "name": "D", "network": "V\u00e4sttrafik", "passenger_information_display": "yes", "passenger_information_display:speech_output": "no", "public_transport": "platform", "ref": "D", "shelter": "yes", "surface": "paved", "tactile_paving": "yes"}}, {"type": "way", "id": 143511152, "nodes": [1570367197, 1570367149], "tags": {"bench": "yes", "bin": "yes", "lit": "yes", "name": "B", "network": "V\u00e4sttrafik", "passenger_information_display": "yes", "passenger_information_display:speech_output": "no", "public_transport": "platform", "railway": "platform", "ref": "B", "shelter": "yes", "surface": "paved", "tactile_paving": "yes", "tram": "yes"}}, {"type": "way", "id": 152081439, "nodes": [1649128473, 1649128507, 11736871363, 1649128509, 1649128482, 11736871361, 1649128473], "tags": {"area": "yes", "bench": "yes", "bin": "yes", "lit": "yes", "name": "B", "network": "V\u00e4sttrafik", "public_transport": "platform", "railway": "platform", "ref": "B", "shelter": "yes", "tactile_paving": "yes", "tram": "yes"}}, {"type": "way", "id": 152081441, "nodes": [1649128437, 1649128463, 1649128469, 1649128444, 11734175391, 1649128437], "tags": {"area": "yes", "bench": "yes", "bin": "yes", "lit": "yes", "name": "A", "network": "V\u00e4sttrafik", "public_transport": "platform", "railway": "platform", "ref": "A", "shelter": "yes", "tactile_paving": "yes", "tram": "yes"}}, {"type": "way", "id": 163501157, "nodes": [1751728852, 1916846225], "tags": {"bench": "yes", "bin": "yes", "bus": "yes", "gtfs:stop_id": "9022050031539002", "highway": "platform", "lit": "yes", "name": "A2", "network": "V\u00e4sttrafik", "public_transport": "platform", "railway": "platform", "ref": "A2", "route_ref": "5;10;18;19;25;52;55", "shelter": "yes", "tactile_paving": "yes", "tram": "yes"}}, {"type": "way", "id": 163713368, "nodes": [1753919833, 1753919829], "tags": {"bench": "yes", "bin": "yes", "bus": "yes", "gtfs:stop_id": "9022050031539001", "highway": "platform", "lit": "yes", "name": "A1", "network": "V\u00e4sttrafik", "public_transport": "platform", "railway": "platform", "ref": "A1", "route_ref": "5;10;18;19;25;52;55", "shelter": "yes", "tactile_paving": "yes", "tram": "yes"}}, {"type": "way", "id": 163986920, "nodes": [1756502689, 9239162682, 1756502692], "tags": {"bench": "yes", "bin": "yes", "bus": "yes", "highway": "platform", "lit": "yes", "name": "A", "network": "V\u00e4sttrafik", "public_transport": "platform", "ref": "A", "shelter": "yes", "tactile_paving": "yes"}}, {"type": "way", "id": 163986924, "nodes": [1756502685, 1756502670], "tags": {"bench": "yes", "bin": "yes", "bus": "yes", "highway": "platform", "lit": "yes", "name": "B", "network": "V\u00e4sttrafik", "public_transport": "platform", "ref": "B", "shelter": "yes", "source": "survey", "tactile_paving": "yes"}}, {"type": "way", "id": 163986928, "nodes": [1756502687, 9239162688], "tags": {"bench": "yes", "bin": "yes", "bus": "yes", "highway": "platform", "lit": "yes", "name": "C", "network": "V\u00e4sttrafik", "public_transport": "platform", "ref": "C", "shelter": "yes", "tactile_paving": "yes"}}, {"type": "way", "id": 163986934, "nodes": [1756502693, 1756502691], "tags": {"bench": "yes", "bin": "yes", "bus": "yes", "highway": "platform", "lit": "yes", "name": "D", "network": "V\u00e4sttrafik", "public_transport": "platform", "ref": "D", "shelter": "yes", "tactile_paving": "yes"}}, {"type": "way", "id": 163986936, "nodes": [9768720387, 565429964, 1916846197], "tags": {"bench": "yes", "bin": "yes", "bus": "yes", "gtfs:stop_id": "9022050031539004", "highway": "platform", "kerb": "raised", "kerb:approach_aid": "no", "lit": "yes", "name": "B2", "network": "V\u00e4sttrafik", "passenger_information_display": "yes", "passenger_information_display:speech_output": "no", "public_transport": "platform", "railway": "platform", "ref": "B2", "route_ref": "1;3;6;11;16;Lisebergslinjen", "shelter": "yes", "surface": "paved", "tactile_paving": "no", "tram": "yes"}}, {"type": "way", "id": 163986941, "nodes": [1756502646, 1756502645], "tags": {"bench": "yes", "bin": "yes", "bus": "yes", "gtfs:stop_id": "9022050031539005", "highway": "platform", "kerb": "raised", "kerb:approach_aid": "yes", "lit": "yes", "name": "C1", "network": "V\u00e4sttrafik", "passenger_information_display": "yes", "passenger_information_display:speech_output": "no", "public_transport": "platform", "railway": "platform", "ref": "C1", "route_ref": "1;2;4;6;7", "shelter": "yes", "surface": "paved", "tactile_paving": "no", "tram": "yes"}}, {"type": "way", "id": 165238837, "nodes": [1767990665, 1767990668], "tags": {"bench": "yes", "bin": "yes", "lit": "yes", "name": "C", "network": "V\u00e4sttrafik", "public_transport": "platform", "railway": "platform", "ref": "C", "shelter": "yes", "tactile_paving": "yes", "tram": "yes"}}, {"type": "way", "id": 165238855, "nodes": [3363595652, 8711148181], "tags": {"bench": "yes", "bin": "yes", "foot": "yes", "highway": "platform", "lit": "yes", "name": "A", "network": "V\u00e4sttrafik", "public_transport": "platform", "railway": "platform", "ref": "A", "shelter": "yes", "tactile_paving": "yes", "tram": "yes"}}, {"type": "way", "id": 165238865, "nodes": [1767990652, 1767990654], "tags": {"bench": "yes", "bin": "yes", "lit": "yes", "name": "A", "network": "V\u00e4sttrafik", "public_transport": "platform", "railway": "platform", "ref": "A", "shelter": "yes", "tactile_paving": "yes", "tram": "yes"}}, {"type": "way", "id": 165244844, "nodes": [12251171732, 1768040559], "tags": {"bench": "yes", "bin": "yes", "lit": "yes", "name": "B", "network": "V\u00e4sttrafik", "public_transport": "platform", "railway": "platform", "ref": "B", "shelter": "yes", "tactile_paving": "yes", "tram": "yes"}}, {"type": "way", "id": 165244849, "nodes": [1768040555, 8711148208], "tags": {"bench": "yes", "bin": "yes", "bus": "yes", "gtfs:stop_id": "9022050031900002", "lit": "yes", "name": "B", "network": "V\u00e4sttrafik", "public_transport": "platform", "railway": "platform", "ref": "B", "shelter": "yes", "tactile_paving": "yes", "tram": "yes"}}, {"type": "way", "id": 165244852, "nodes": [1768040563, 1768040561], "tags": {"bench": "yes", "bin": "yes", "bus": "yes", "gtfs:stop_id": "9022050031727004", "lit": "yes", "name": "D", "network": "V\u00e4sttrafik", "public_transport": "platform", "railway": "platform", "ref": "D", "shelter": "yes", "tactile_paving": "yes", "tram": "yes"}}, {"type": "way", "id": 166206429, "nodes": [7704945380, 1776845149, 1776845148], "tags": {"bench": "yes", "bin": "yes", "bus": "yes", "gtfs:stop_id": "9022050031727006", "highway": "platform", "lit": "yes", "name": "F", "network": "V\u00e4sttrafik", "public_transport": "platform", "ref": "F", "shelter": "yes", "tactile_paving": "no", "width": "2"}}, {"type": "way", "id": 166331016, "nodes": [1777853558, 1777853557], "tags": {"bench": "yes", "bin": "yes", "bus": "yes", "gtfs:stop_id": "9022050031728001", "highway": "platform", "lit": "yes", "name": "B", "network": "V\u00e4sttrafik", "public_transport": "platform", "ref": "B", "shelter": "yes", "tactile_paving": "yes"}}, {"type": "way", "id": 166331025, "nodes": [1777853565, 1777853567], "tags": {"bench": "yes", "bin": "yes", "bus": "yes", "gtfs:stop_id": "9022050031539009", "highway": "platform", "lit": "yes", "name": "E1", "network": "V\u00e4sttrafik", "public_transport": "platform", "ref": "E1", "route_ref": "50", "shelter": "yes", "tactile_paving": "no"}}, {"type": "way", "id": 166331027, "nodes": [1777853568, 1777853566], "tags": {"bench": "yes", "bin": "yes", "bus": "yes", "gtfs:stop_id": "9022050031539010", "highway": "platform", "lit": "yes", "name": "E3", "network": "V\u00e4sttrafik", "public_transport": "platform", "ref": "E3", "shelter": "yes", "tactile_paving": "no"}}, {"type": "way", "id": 166331028, "nodes": [1777853570, 1777853569], "tags": {"bench": "yes", "bin": "yes", "bus": "yes", "gtfs:stop_id": "9022050031539011", "highway": "platform", "lit": "yes", "name": "E2", "network": "V\u00e4sttrafik", "public_transport": "platform", "ref": "E2", "route_ref": "50", "shelter": "yes", "tactile_paving": "no"}}, {"type": "way", "id": 166511767, "nodes": [1779559441, 1779559440], "tags": {"bench": "no", "bin": "no", "bus": "yes", "gtfs:stop_id": "9022050031900003", "highway": "platform", "name": "C", "network": "V\u00e4sttrafik", "public_transport": "platform", "ref": "C", "shelter": "yes", "tactile_paving": "no", "wheelchair": "limited"}}, {"type": "way", "id": 166511768, "nodes": [1779559443, 1779559442], "tags": {"bench": "yes", "bin": "yes", "bus": "yes", "gtfs:stop_id": "9022050031539003", "highway": "platform", "kerb": "raised", "kerb:approach_aid": "no", "lit": "yes", "name": "B1", "network": "V\u00e4sttrafik", "passenger_information_display": "yes", "passenger_information_display:speech_output": "no", "public_transport": "platform", "railway": "platform", "ref": "B1", "route_ref": "3;9;11;60", "shelter": "yes", "surface": "paved", "tactile_paving": "no", "tram": "yes"}}, {"type": "way", "id": 166511774, "nodes": [3382753167, 1779559437], "tags": {"bench": "yes", "bin": "yes", "bus": "yes", "gtfs:stop_id": "9022050031886002", "highway": "platform", "lit": "yes", "name": "B", "network": "V\u00e4sttrafik", "public_transport": "platform", "ref": "B", "shelter": "yes", "tactile_paving": "yes"}}, {"type": "way", "id": 166511775, "nodes": [1779559421, 1779559422], "tags": {"bench": "yes", "bin": "yes", "bus": "yes", "gtfs:stop_id": "9022050032104001", "highway": "platform", "lit": "yes", "name": "A", "network": "V\u00e4sttrafik", "public_transport": "platform", "ref": "A", "shelter": "no", "tactile_paving": "no"}}, {"type": "way", "id": 166511777, "nodes": [1779559418, 1779559417], "tags": {"bench": "yes", "bin": "no", "bus": "yes", "gtfs:stop_id": "9022050031526001", "highway": "platform", "lit": "yes", "mapillary": "368778804566080", "name": "A", "network": "V\u00e4sttrafik", "public_transport": "platform", "ref": "A", "shelter": "yes", "tactile_paving": "no"}}, {"type": "way", "id": 166511778, "nodes": [3392707920, 3392707919], "tags": {"bench": "yes", "bin": "yes", "bus": "yes", "gtfs:stop_id": "9022050031841002", "highway": "platform", "lit": "yes", "mapillary": "323190225814324", "name": "B", "network": "V\u00e4sttrafik", "public_transport": "platform", "ref": "B", "shelter": "no", "tactile_paving": "yes"}}, {"type": "way", "id": 166511780, "nodes": [1779559428, 1779559430], "tags": {"bench": "no", "bin": "no", "bus": "yes", "gtfs:stop_id": "9022050031609001", "highway": "platform", "lit": "yes", "mapillary": "290883382712079", "name": "A", "network": "V\u00e4sttrafik", "public_transport": "platform", "ref": "A", "shelter": "no", "tactile_paving": "yes"}}, {"type": "way", "id": 166511782, "nodes": [3556471608, 3556471604], "tags": {"bench": "yes", "bin": "yes", "bus": "yes", "gtfs:stop_id": "9022050031725001", "highway": "platform", "lit": "yes", "name": "A", "network": "V\u00e4sttrafik", "public_transport": "platform", "ref": "A", "shelter": "yes", "tactile_paving": "yes"}}, {"type": "way", "id": 166511784, "nodes": [1779559436, 1779559438], "tags": {"bench": "yes", "bin": "yes", "bus": "yes", "gtfs:stop_id": "9022050031886001", "highway": "platform", "lit": "yes", "name": "A", "network": "V\u00e4sttrafik", "public_transport": "platform", "ref": "A", "shelter": "yes", "tactile_paving": "no"}}, {"type": "way", "id": 166511788, "nodes": [1779559412, 1779559416], "tags": {"bench": "no", "bin": "yes", "bus": "yes", "gtfs:stop_id": "9022050031526002", "highway": "platform", "lit": "yes", "mapillary": "898794230666191", "name": "B", "network": "V\u00e4sttrafik", "public_transport": "platform", "ref": "B", "shelter": "no", "tactile_paving": "no"}}, {"type": "way", "id": 166511791, "nodes": [3556471605, 3556471609], "tags": {"bench": "yes", "bin": "yes", "bus": "yes", "gtfs:stop_id": "9022050031725002", "highway": "platform", "lit": "yes", "name": "B", "network": "V\u00e4sttrafik", "public_transport": "platform", "ref": "B", "shelter": "no", "tactile_paving": "yes"}}, {"type": "way", "id": 166511797, "nodes": [1779559420, 1779559419], "tags": {"bench": "yes", "bin": "no", "bus": "yes", "gtfs:stop_id": "9022050032104002", "highway": "platform", "lit": "yes", "name": "B", "network": "V\u00e4sttrafik", "public_transport": "platform", "ref": "B", "shelter": "no", "tactile_paving": "yes"}}, {"type": "way", "id": 166511799, "nodes": [1779559432, 3461393834], "tags": {"bench": "yes", "bin": "no", "bus": "yes", "gtfs:stop_id": "9022050031841001", "highway": "platform", "lit": "yes", "mapillary": "777996483087869", "name": "A", "network": "V\u00e4sttrafik", "public_transport": "platform", "ref": "A", "shelter": "yes", "tactile_paving": "yes"}}, {"type": "way", "id": 166511800, "nodes": [1779559429, 1779559427], "tags": {"bench": "no", "bin": "no", "bus": "yes", "gtfs:stop_id": "9022050031609002", "highway": "platform", "lit": "yes", "mapillary": "290883382712079", "name": "B", "network": "V\u00e4sttrafik", "public_transport": "platform", "ref": "B", "shelter": "no", "tactile_paving": "no"}}, {"type": "way", "id": 168734853, "nodes": [1799551150, 1799551152], "tags": {"bench": "yes", "bin": "yes", "bus": "yes", "gtfs:stop_id": "9022050031539006", "highway": "platform", "kerb": "raised", "kerb:approach_aid": "no", "lit": "yes", "name": "C2", "network": "V\u00e4sttrafik", "passenger_information_display": "yes", "passenger_information_display:speech_output": "no", "public_transport": "platform", "railway": "platform", "ref": "C2", "route_ref": "2;4;7;9;60", "shelter": "yes", "surface": "paved", "tactile_paving": "no", "tram": "yes"}}, {"type": "way", "id": 180819008, "nodes": [1912807926, 1912807918], "tags": {"bench": "yes", "bin": "yes", "lit": "yes", "name": "B", "network": "V\u00e4sttrafik", "public_transport": "platform", "railway": "platform", "ref": "B", "shelter": "yes", "tactile_paving": "yes", "tram": "yes"}}, {"type": "way", "id": 180819015, "nodes": [1912807949, 1912807941], "tags": {"bench": "yes", "bin": "yes", "lit": "yes", "name": "A", "network": "V\u00e4sttrafik", "public_transport": "platform", "railway": "platform", "ref": "A", "shelter": "yes", "tactile_paving": "yes", "tram": "yes"}}, {"type": "way", "id": 181243713, "nodes": [1916846200, 1770657985], "tags": {"bench": "yes", "bin": "yes", "bus": "yes", "gtfs:stop_id": "9022050031539013", "highway": "platform", "lit": "yes", "name": "A4", "network": "V\u00e4sttrafik", "public_transport": "platform", "ref": "A4", "shelter": "yes", "tactile_paving": "yes"}}, {"type": "way", "id": 181243716, "nodes": [1916846208, 1916846210], "tags": {"bench": "yes", "bin": "yes", "bus": "yes", "gtfs:stop_id": "9022050031539012", "highway": "platform", "lit": "yes", "name": "A3", "network": "V\u00e4sttrafik", "public_transport": "platform", "ref": "A3", "route_ref": "19", "shelter": "yes", "tactile_paving": "yes"}}, {"type": "way", "id": 198686737, "nodes": [2087898340, 11185552411], "tags": {"bench": "yes", "bin": "yes", "lit": "yes", "name": "A", "network": "V\u00e4sttrafik", "public_transport": "platform", "railway": "platform", "ref": "A", "shelter": "yes", "tactile_paving": "yes", "tram": "yes"}}, {"type": "way", "id": 198690161, "nodes": [2087923075, 2087923076], "tags": {"bench": "yes", "bin": "yes", "lit": "yes", "name": "B", "network": "V\u00e4sttrafik", "public_transport": "platform", "railway": "platform", "ref": "B", "shelter": "yes", "tactile_paving": "yes", "tram": "yes"}}, {"type": "way", "id": 198690163, "nodes": [3390680807, 3390680808], "tags": {"bench": "yes", "bin": "yes", "lit": "yes", "name": "D", "network": "V\u00e4sttrafik", "public_transport": "platform", "railway": "platform", "ref": "D", "shelter": "yes", "tactile_paving": "yes", "tram": "yes"}}, {"type": "way", "id": 198690164, "nodes": [2087922996, 2087922999], "tags": {"bench": "yes", "bin": "yes", "lit": "yes", "name": "A", "network": "V\u00e4sttrafik", "public_transport": "platform", "railway": "platform", "ref": "A", "shelter": "yes", "tactile_paving": "yes", "tram": "yes"}}, {"type": "way", "id": 198690166, "nodes": [2087923061, 2087923065], "tags": {"bench": "yes", "bin": "yes", "lit": "yes", "name": "A", "network": "V\u00e4sttrafik", "public_transport": "platform", "railway": "platform", "ref": "A", "shelter": "yes", "tactile_paving": "yes", "tram": "yes"}}, {"type": "way", "id": 198690168, "nodes": [2087923000, 2087922998], "tags": {"bench": "yes", "bin": "yes", "lit": "yes", "name": "B", "network": "V\u00e4sttrafik", "public_transport": "platform", "railway": "platform", "ref": "B", "shelter": "yes", "tactile_paving": "yes", "tram": "yes"}}, {"type": "way", "id": 198690169, "nodes": [2087923029, 9036494983, 2087923018], "tags": {"bench": "yes", "bin": "yes", "lit": "yes", "name": "B", "network": "V\u00e4sttrafik", "public_transport": "platform", "railway": "platform", "ref": "B", "shelter": "yes", "tactile_paving": "no", "tram": "yes"}}, {"type": "way", "id": 198690170, "nodes": [2087923014, 9036494975, 2087923023, 2087923026], "tags": {"bench": "yes", "bin": "yes", "lit": "yes", "name": "A", "network": "V\u00e4sttrafik", "public_transport": "platform", "railway": "platform", "ref": "A", "shelter": "yes", "tactile_paving": "yes", "tram": "yes"}}, {"type": "way", "id": 205743792, "nodes": [2157196679, 2157196681], "tags": {"bench": "no", "bin": "no", "bus": "yes", "lit": "yes", "name": "D1", "network": "V\u00e4sttrafik", "public_transport": "platform", "railway": "platform", "ref": "D1", "shelter": "no", "tactile_paving": "no", "tram": "yes"}}, {"type": "way", "id": 205743793, "nodes": [2157196682, 2157196680], "tags": {"bench": "no", "bin": "no", "bus": "yes", "lit": "yes", "name": "D2", "network": "V\u00e4sttrafik", "public_transport": "platform", "railway": "platform", "ref": "D2", "shelter": "no", "tactile_paving": "no", "tram": "yes"}}, {"type": "way", "id": 205759989, "nodes": [2157387072, 2157387073], "tags": {"bench": "yes", "bin": "yes", "bus": "yes", "gtfs:stop_id": "9022050031727005", "highway": "platform", "lit": "yes", "name": "E", "network": "V\u00e4sttrafik", "public_transport": "platform", "ref": "E", "shelter": "yes", "tactile_paving": "no"}}, {"type": "way", "id": 206005930, "nodes": [2160061755, 2160061757], "tags": {"bench": "no", "bin": "no", "bus": "yes", "gtfs:stop_id": "9022050031609003", "highway": "platform", "lit": "yes", "mapillary": "1670031926718612", "name": "C", "network": "V\u00e4sttrafik", "public_transport": "platform", "ref": "C", "shelter": "no", "tactile_paving": "no"}}, {"type": "way", "id": 206005931, "nodes": [2160061758, 3461420530], "tags": {"bench": "no", "bin": "no", "bus": "yes", "gtfs:stop_id": "9022050031609004", "highway": "platform", "lit": "yes", "mapillary": "756552578340194", "name": "D", "network": "V\u00e4sttrafik", "public_transport": "platform", "ref": "D", "shelter": "no", "tactile_paving": "no"}}, {"type": "way", "id": 211488778, "nodes": [2214970891, 11185269934], "tags": {"bench": "yes", "bin": "yes", "bus": "yes", "gtfs:stop_id": "9022050031893001", "highway": "platform", "lit": "yes", "name": "A", "network": "V\u00e4sttrafik", "public_transport": "platform", "ref": "A", "shelter": "yes", "tactile_paving": "yes"}}, {"type": "way", "id": 232583556, "nodes": [2409284625, 8857879976, 2409284621, 2409284618, 3797311057, 3797295350, 2409284579, 2409284576, 2409284574, 2409284577, 2409284589, 2409284596, 3797295351, 2409284617, 2409284625], "tags": {"area": "yes", "bench": "yes", "bin": "yes", "bus": "yes", "gtfs:stop_id": "9022050032007001", "highway": "platform", "lit": "yes", "name": "A", "network": "V\u00e4sttrafik", "public_transport": "platform", "railway": "platform", "ref": "A", "shelter": "yes", "surface": "asphalt", "tactile_paving": "yes", "train": "yes"}}, {"type": "way", "id": 232583557, "nodes": [3797295353, 2409284608, 3797311062, 2409284620, 2409284628, 8857879979, 8857879980, 2409284629, 2409284626, 2409284623, 3797311063, 3797295354, 2409284607, 8857879981, 8857879982, 8857879983, 8857879984, 3797295353], "tags": {"area": "yes", "bench": "yes", "bin": "yes", "bus": "yes", "gtfs:stop_id": "9022050032007002", "highway": "platform", "lit": "yes", "name": "B", "network": "V\u00e4sttrafik", "public_transport": "platform", "railway": "platform", "ref": "B", "shelter": "yes", "surface": "asphalt", "tactile_paving": "yes", "train": "yes"}}, {"type": "way", "id": 331749735, "nodes": [2087922989, 3390680806], "tags": {"bench": "yes", "bin": "yes", "lit": "yes", "name": "C", "network": "V\u00e4sttrafik", "public_transport": "platform", "railway": "platform", "ref": "C", "shelter": "yes", "tactile_paving": "yes", "tram": "yes"}}, {"type": "way", "id": 366803733, "nodes": [3707818840, 3707818845], "tags": {"bench": "yes", "bin": "yes", "bus": "yes", "gtfs:stop_id": "9022050032007003", "highway": "platform", "lit": "yes", "name": "C", "network": "V\u00e4sttrafik", "public_transport": "platform", "ref": "C", "shelter": "yes", "surface": "asphalt", "tactile_paving": "yes"}}, {"type": "way", "id": 366803734, "nodes": [3707818847, 3707818841], "tags": {"bench": "yes", "bin": "yes", "bus": "yes", "gtfs:stop_id": "9022050032007004", "highway": "platform", "lit": "yes", "name": "D", "network": "V\u00e4sttrafik", "public_transport": "platform", "ref": "D", "shelter": "yes", "surface": "asphalt", "tactile_paving": "yes"}}, {"type": "way", "id": 613137663, "nodes": [5802347903, 5802347902], "tags": {"bench": "yes", "bin": "yes", "bus": "yes", "gtfs:stop_id": "9022050031727010", "highway": "platform", "lit": "yes", "name": "K", "network": "V\u00e4sttrafik", "public_transport": "platform", "ref": "K", "shelter": "no", "tactile_paving": "yes"}}, {"type": "way", "id": 781876008, "nodes": [7299979090, 7299979089], "tags": {"bench": "no", "bin": "no", "lit": "yes", "name": "H", "network": "V\u00e4sttrafik", "public_transport": "platform", "railway": "platform", "ref": "H", "shelter": "no", "tactile_paving": "no", "tram": "yes"}}, {"type": "way", "id": 781876009, "nodes": [7299979092, 7299979091], "tags": {"bench": "no", "bin": "no", "lit": "yes", "name": "G", "network": "V\u00e4sttrafik", "public_transport": "platform", "railway": "platform", "ref": "G", "shelter": "no", "tactile_paving": "no", "tram": "yes"}}, {"type": "way", "id": 940612383, "nodes": [8711148207, 1767990637], "tags": {"bench": "yes", "bin": "yes", "bus": "yes", "gtfs:stop_id": "9022050031900001", "highway": "platform", "lit": "yes", "name": "A", "network": "V\u00e4sttrafik", "public_transport": "platform", "railway": "platform", "ref": "A", "shelter": "yes", "tactile_paving": "yes", "tram": "yes"}}, {"type": "way", "id": 940612386, "nodes": [8711163222, 8711163221, 2035610206], "tags": {"bench": "yes", "bin": "yes", "foot": "yes", "lit": "yes", "name": "B", "network": "V\u00e4sttrafik", "public_transport": "platform", "railway": "platform", "ref": "B", "shelter": "yes", "tactile_paving": "yes", "tram": "yes"}}, {"type": "way", "id": 957237070, "nodes": [8857801496, 5764245692], "tags": {"bench": "yes", "bin": "yes", "bus": "yes", "gtfs:stop_id": "9022050031727011", "highway": "platform", "lit": "yes", "name": "L", "network": "V\u00e4sttrafik", "public_transport": "platform", "ref": "L", "route_ref": "90;91", "shelter": "no", "tactile_paving": "yes"}}, {"type": "way", "id": 957237072, "nodes": [8857824326, 528867274], "tags": {"bench": "yes", "bin": "yes", "lit": "yes", "name": "A", "network": "V\u00e4sttrafik", "public_transport": "platform", "railway": "platform", "ref": "A", "shelter": "yes", "tactile_paving": "yes", "tram": "yes"}}, {"type": "way", "id": 973457133, "nodes": [1779559414, 9009556342], "tags": {"bench": "yes", "bin": "yes", "bus": "yes", "gtfs:stop_id": "9022050031839001", "highway": "platform", "lit": "yes", "name": "A", "network": "V\u00e4sttrafik", "public_transport": "platform", "ref": "A", "shelter": "yes", "tactile_paving": "no", "wikimedia_commons": "File:Masthugget bus stop.jpg"}}, {"type": "way", "id": 1015483537, "nodes": [9367391453, 9367391451], "tags": {"bench": "yes", "bin": "yes", "bus": "yes", "gtfs:stop_id": "9022050031656001", "highway": "platform", "lit": "yes", "name": "A", "network": "V\u00e4sttrafik", "public_transport": "platform", "railway": "platform", "ref": "A", "shelter": "yes", "tactile_paving": "yes", "tram": "yes"}}, {"type": "way", "id": 1015483538, "nodes": [9367391449, 9367391447], "tags": {"bench": "yes", "bin": "yes", "bus": "yes", "gtfs:stop_id": "9022050031656002", "highway": "platform", "lit": "yes", "name": "B", "network": "V\u00e4sttrafik", "public_transport": "platform", "railway": "platform", "ref": "B", "shelter": "yes", "tactile_paving": "yes", "tram": "yes"}}, {"type": "way", "id": 1200892189, "nodes": [3707818842, 3707818839, 4779682525, 3707818850], "tags": {"bench": "yes", "bin": "no", "ferry": "yes", "name": "E", "network": "V\u00e4sttrafik", "public_transport": "platform", "ref": "E", "shelter": "yes"}}, {"type": "way", "id": 1200899476, "nodes": [1540463253, 315979596, 11530492566, 11530559470], "tags": {"bench": "yes", "bin": "no", "ferry": "yes", "lit": "yes", "name": "A", "network": "V\u00e4sttrafik", "public_transport": "platform", "ref": "A", "shelter": "yes", "tactile_paving": "no", "wheelchair": "yes"}}, {"type": "way", "id": 1207112126, "nodes": [11185332437, 2214970893], "tags": {"bench": "yes", "bin": "yes", "bus": "yes", "gtfs:stop_id": "9022050031893002", "highway": "platform", "lit": "yes", "name": "B", "network": "V\u00e4sttrafik", "public_transport": "platform", "ref": "B", "shelter": "yes", "tactile_paving": "yes"}}, {"type": "way", "id": 1207144006, "nodes": [11185552410, 2087898337], "tags": {"bench": "yes", "bin": "yes", "lit": "yes", "name": "B", "network": "V\u00e4sttrafik", "public_transport": "platform", "railway": "platform", "ref": "B", "shelter": "yes", "tactile_paving": "yes", "tram": "yes"}}]}